[
    {
        "Altitude(m)": 605459.0381009581,
        "Argument of Periapsis(deg)": 0.0,
        "Eccentricity": 0.0,
        "Inclination(deg)": 60.0,
        "Latitude(deg)": 27.988244208052222,
        "Longitude(deg)": 12.798526884203795,
        "Mean Anomaly(deg)": 32.7273,
        "RAAN(deg)": 95.0,
        "Satellite Name": "Test1 420",
        "Satellite Number": 420,
        "Semi-Major Axis(m)": 6980739.136638005,
        "Time(s)": 0
    },
    {
        "Altitude(m)": 605535.8294447288,
        "Argument of Periapsis(deg)": 0.00010418945913296404,
        "Eccentricity": 0.0,
        "Inclination(deg)": 60.0,
        "Latitude(deg)": 28.50137439883504,
        "Longitude(deg)": 13.155470806963436,
        "Mean Anomaly(deg)": 33.34740614546184,
        "RAAN(deg)": 94.99957995086027,
        "Satellite Name": "Test1 420",
        "Satellite Number": 420,
        "Semi-Major Axis(m)": 6980739.136638005,
        "Time(s)": 10
    }
]